1 44941U 20001AD  23028.28011887  .00019220  00000-0  13042-2 0  9991
2 44941  53.0550  28.1651 0001830  86.8799 273.2399 15.06442277168844
1 44941U 20001AD  23029.27531531  .00010004  00000-0  68921-3 0  9992
2 44941  53.0548  23.6980 0001838  99.6302 260.4894 15.06417016168993
1 44941U 20001AD  23029.93878889  .00014748  00000-0  10068-2 0  9992
2 44941  53.0543  20.7198 0001765 101.2768 258.8419 15.06402930169097
1 44941U 20001AD  23030.33687077  .00002634  00000-0  19568-3 0  9991
2 44941  53.0538  18.9322 0001862  98.6713 261.4486 15.06397171169157
1 44941U 20001AD  23030.33687077  .00002634  00000-0  19568-3 0  9991
2 44941  53.0538  18.9322 0001862  98.6713 261.4486 15.06397171169157
1 44941U 20001AD  23030.60225876  .00002493  00000-0  18621-3 0  9998
2 44941  53.0542  17.7395 0002026  66.9241 293.1961 15.06395837169197
1 44941U 20001AD  23031.33207161  .00005788  00000-0  40710-3 0  9990
2 44941  53.0536  14.4622 0001770 103.0408 257.0779 15.06406105169300
1 44941U 20001AD  23032.19458045  .00006527  00000-0  45655-3 0  9999
2 44941  53.0531  10.5912 0001860 100.1476 259.9723 15.06408884169437
1 44941U 20001AD  23032.32727305  .00007661  00000-0  53247-3 0  9998
2 44941  53.0529   9.9954 0001845  97.1497 262.9702 15.06412346169454
1 44941U 20001AD  23033.12344027  .00002150  00000-0  16317-3 0  9998
2 44941  53.0533   6.4213 0001849 100.0118 260.1079 15.06398980169574
1 44941U 20001AD  23033.32248033  .00004308  00000-0  30793-3 0  9991
2 44941  53.0533   5.5276 0001917  93.4141 266.7067 15.06403872169600
1 44941U 20001AD  23034.18498616  .00009873  00000-0  68054-3 0  9993
2 44941  53.0537   1.6567 0001764  89.5619 270.5572 15.06414216169732
1 44941U 20001AD  23034.31767757  .00011671  00000-0  80067-3 0  9990
2 44941  53.0537   1.0609 0001784  89.4457 270.6737 15.06420152169756
1 44941U 20001AD  23035.31288037  .00010846  00000-0  74561-3 0  9995
2 44941  53.0540 356.5932 0001880 100.1253 259.9948 15.06412897169907
1 44941U 20001AD  23035.31288037  .00010846  00000-0  74561-3 0  9995
2 44941  53.0540 356.5932 0001880 100.1253 259.9948 15.06412897169907
1 44941U 20001AD  23035.91000778  .00005026  00000-0  35615-3 0  9996
2 44941  53.0535 353.9114 0002250  97.9647 262.1598 15.06390827169990
1 44941U 20001AD  23035.91000778  .00005026  00000-0  35615-3 0  9996
2 44941  53.0535 353.9114 0002250  97.9647 262.1598 15.06390827169990
1 44941U 20001AD  23036.24174346  .00005240  00000-0  37046-3 0  9994
2 44941  53.0536 352.4223 0001790  95.7469 264.3724 15.06393502170048
1 44941U 20001AD  23037.10425706  .00003736  00000-0  26964-3 0  9994
2 44941  53.0535 348.5506 0001859  95.6689 264.4512 15.06395230170176
1 44941U 20001AD  23037.30329486  .00006601  00000-0  46154-3 0  9991
2 44941  53.0533 347.6570 0001804  96.3269 263.7926 15.06405922170202
1 44941U 20001AD  23037.30329486  .00006601  00000-0  46154-3 0  9991
2 44941  53.0533 347.6570 0001804  96.3269 263.7926 15.06405922170202
1 44941U 20001AD  23038.23214386  .00010458  00000-0  71952-3 0  9995
2 44941  53.0538 343.4861 0001888  98.9300 261.1903 15.06422179170345
1 44941U 20001AD  23039.22734734  .00011413  00000-0  78349-3 0  9998
2 44941  53.0542 339.0192 0001828  88.7899 271.3299 15.06417772170492
1 44941U 20001AD  23039.22734734  .00011413  00000-0  78349-3 0  9998
2 44941  53.0542 339.0192 0001828  88.7899 271.3299 15.06417772170492
1 44941U 20001AD  23039.62542800  .00005360  00000-0  37855-3 0  9994
2 44941  53.0542 337.2306 0001543 129.0728 231.0399 15.06393234170550
1 44941U 20001AD  23039.89081958  .00009303  00000-0  64277-3 0  9994
2 44941  53.0553 336.0409 0001370 131.9761 228.1344 15.06389091170597
1 44941U 20001AD  23040.08986479  .00012153  00000-0  83361-3 0  9991
2 44941  53.0542 335.1500 0001229  93.0485 267.0645 15.06389923170625
1 44941U 20001AD  23040.08986479  .00012153  00000-0  83361-3 0  9991
2 44941  53.0542 335.1500 0001229  93.0485 267.0645 15.06389923170625
1 44941U 20001AD  23040.95237435  .00005868  00000-0  41247-3 0  9990
2 44941  53.0536 331.2784 0001388  92.3307 267.7841 15.06399839170756
1 44941U 20001AD  23041.08506389  .00008633  00000-0  59752-3 0  9995
2 44941  53.0542 330.6808 0001489 102.8035 257.3121 15.06413854170772
1 44941U 20001AD  23041.08506389  .00008633  00000-0  59752-3 0  9995
2 44941  53.0542 330.6808 0001489 102.8035 257.3121 15.06413854170772
1 44941U 20001AD  23042.08026601  .00002679  00000-0  19868-3 0  9998
2 44941  53.0526 326.2166 0001162 109.4076 250.7039 15.06404000170923
1 44941U 20001AD  23042.08026601  .00002679  00000-0  19868-3 0  9998
2 44941  53.0526 326.2166 0001162 109.4076 250.7039 15.06404000170923
1 44941U 20001AD  23042.81008036 -.00000232  00000-0  33047-5 0  9992
2 44941  53.0536 322.9372 0000988  96.6168 263.4933 15.06400911171034
1 44941U 20001AD  23042.81008036 -.00000232  00000-0  33047-5 0  9992
2 44941  53.0536 322.9372 0000988  96.6168 263.4933 15.06400911171034
1 44941U 20001AD  23043.47355225 -.00001701  00000-0 -95332-4 0  9997
2 44941  53.0511 319.9561 0001540 101.1482 258.9680 15.06390169171131
1 44941U 20001AD  23043.47355225 -.00001701  00000-0 -95332-4 0  9997
2 44941  53.0511 319.9561 0001540 101.1482 258.9680 15.06390169171131
1 44941U 20001AD  23044.46876127  .00002238  00000-0  16915-3 0  9999
2 44941  53.0521 315.4880 0001159  98.5089 261.6031 15.06390564171281
1 44941U 20001AD  23044.73415192  .00000436  00000-0  48182-4 0  9990
2 44941  53.0531 314.2991 0001529  95.9448 264.1715 15.06388381171329
1 44941U 20001AD  23045.13223494  .00002244  00000-0  16949-3 0  9991
2 44941  53.0535 312.5124 0000675 106.4370 253.6693 15.06389390171380
1 44941U 20001AD  23045.79570661  .00003799  00000-0  27384-3 0  9995
2 44941  53.0522 309.5338 0001142  97.3708 262.7410 15.06394084171487
1 44941U 20001AD  23045.79570661  .00003799  00000-0  27384-3 0  9995
2 44941  53.0522 309.5338 0001142  97.3708 262.7410 15.06394084171487
1 44941U 20001AD  23046.45917208  .00005225  00000-0  36938-3 0  9992
2 44941  53.0533 306.5554 0000887  98.7362 261.3727 15.06402382171580
1 44941U 20001AD  23046.92359735  .00005277  00000-0  37281-3 0  9998
2 44941  53.0520 304.4696 0001322 102.4343 257.6794 15.06408198171658
1 44941U 20001AD  23046.92359735  .00005277  00000-0  37281-3 0  9998
2 44941  53.0520 304.4696 0001322 102.4343 257.6794 15.06408198171658
1 44941U 20001AD  23047.91880240  .00000510  00000-0  53147-4 0  9993
2 44941  53.0534 300.0044 0000971  99.9604 260.1494 15.06398936171802
1 44941U 20001AD  23047.91880240  .00000510  00000-0  53147-4 0  9993
2 44941  53.0534 300.0044 0000971  99.9604 260.1494 15.06398936171802
1 44941U 20001AD  23048.38323204 -.00000291  00000-0 -63301-6 0  9990
2 44941  53.0523 297.9166 0000979 106.4211 253.6885 15.06394682171877
1 44941U 20001AD  23048.71497363 -.00001354  00000-0 -72046-4 0  9990
2 44941  53.0518 296.4286 0001811  92.4085 267.7112 15.06389873171928
1 44941U 20001AD  23048.84766942 -.00001900  00000-0 -10871-3 0  9990
2 44941  53.0532 295.8324 0001585 108.1839 251.9322 15.06382624171947
1 44941U 20001AD  23049.37844433  .00000679  00000-0  64518-4 0  9999
2 44941  53.0542 293.4511 0001412 108.7540 251.3602 15.06390314172024
1 44941U 20001AD  23049.77652138  .00003678  00000-0  26564-3 0  9992
2 44941  53.0523 291.6625 0001172 103.7491 256.3629 15.06400853172082
1 44941U 20001AD  23050.37363554  .00013086  00000-0  89516-3 0  9991
2 44941  53.0521 288.9828 0001177 100.9960 259.1162 15.06426505172174
1 44941U 20001AD  23050.63901549  .00014562  00000-0  99346-3 0  9994
2 44941  53.0516 287.7910 0001133 101.3679 258.7437 15.06438680172213
1 44941U 20001AD  23051.43516766 -.00021660  00000-0 -14400-2 0  9992
2 44941  53.0512 284.2167 0001123  88.6372 271.4746 15.06391972172331
1 44941U 20001AD  23051.43516766 -.00021660  00000-0 -14400-2 0  9992
2 44941  53.0512 284.2167 0001123  88.6372 271.4746 15.06391972172331
1 44941U 20001AD  23051.89960021 -.00004201  00000-0 -26341-3 0  9999
2 44941  53.0509 282.1315 0001199  81.3984 278.7141 15.06388948172407
1 44941U 20001AD  23052.36403566  .00015895  00000-0  10838-2 0  9990
2 44941  53.0508 280.0466 0001208  77.8538 282.2586 15.06391063172478
1 44941U 20001AD  23052.82846416  .00019128  00000-0  12993-2 0  9993
2 44941  53.0508 277.9614 0001261  75.2716 284.8413 15.06406502172547
1 44941U 20001AD  23052.89481067  .00019574  00000-0  13290-2 0  9993
2 44941  53.0508 277.6636 0001286  74.6080 285.5051 15.06409315172554
1 44941U 20001AD  23053.75733050  .00006288  00000-0  44073-3 0  9993
2 44941  53.0509 273.7915 0001405  69.3858 290.7282 15.06390650172688
1 44941U 20001AD  23053.89002475  .00007335  00000-0  51090-3 0  9999
2 44941  53.0526 273.1900 0001566  89.6890 270.4279 15.06392129172701
1 44941U 20001AD  23054.02272107  .00004223  00000-0  30233-3 0  9995
2 44941  53.0512 272.5992 0001232  89.0369 271.0761 15.06382709172723
1 44941U 20001AD  23054.02272107  .00004223  00000-0  30233-3 0  9995
2 44941  53.0512 272.5992 0001232  89.0369 271.0761 15.06382709172723
1 44941U 20001AD  23054.88523528  .00011477  00000-0  78813-3 0  9990
2 44941  53.0512 268.7266 0001199  90.4574 269.6552 15.06398152172854
1 44941U 20001AD  23054.88523528  .00011477  00000-0  78813-3 0  9990
2 44941  53.0512 268.7266 0001199  90.4574 269.6552 15.06398152172854
1 44941U 20001AD  23055.88044139  .00001695  00000-0  13266-3 0  9999
2 44941  53.0509 264.2590 0001125  90.9006 269.2112 15.06393725173002
1 44941U 20001AD  23055.88044139  .00001695  00000-0  13266-3 0  9999
2 44941  53.0509 264.2590 0001125  90.9006 269.2112 15.06393725173002
1 44941U 20001AD  23056.54390642  .00005161  00000-0  36507-3 0  9991
2 44941  53.0509 261.2802 0001218  93.2108 266.9021 15.06405484173107
1 44941U 20001AD  23056.74294467  .00005406  00000-0  38142-3 0  9990
2 44941  53.0509 260.3868 0001160  93.9375 266.1746 15.06409314173133
1 44941U 20001AD  23056.87563727  .00007472  00000-0  51980-3 0  9992
2 44941  53.0510 259.7910 0001167  95.3736 264.7386 15.06413002173154
